IRIDIUM 155             
1 43573U 18061E   21348.55081983  .00000097  00000+0  27679-4 0  9995
2 43573  86.3977  24.4270 0002033  82.1539 277.9887 14.34217025177483
IRIDIUM 154             
1 43574U 18061F   21348.53178365  .00000093  00000+0  26250-4 0  9995
2 43574  86.3981  24.4898 0002454  96.2296 263.9179 14.34220100177531
IRIDIUM 163             
1 43575U 18061G   21348.51276586  .00000090  00000+0  25012-4 0  9990
2 43575  86.3978  24.4634 0002004 105.6696 254.4721 14.34219692177505
IRIDIUM 156             
1 43576U 18061H   21348.55717104  .00000098  00000+0  28043-4 0  9996
2 43576  86.3979  24.4501 0001851  93.6278 266.5130 14.34218284177505
IRIDIUM 164             
1 43577U 18061J   21348.53813484  .00000097  00000+0  27669-4 0  9995
2 43577  86.3980  24.4733 0002324  98.6676 261.4783 14.34218636177541
IRIDIUM 159             
1 43578U 18061K   21348.50642605  .00000093  00000+0  26290-4 0  9993
2 43578  86.3978  24.4580 0002357  96.3143 263.8321 14.34220019177507
IRIDIUM 180             
1 43922U 19002A   21348.43616323  .00000089  00000+0  24855-4 0  9992
2 43922  86.3953 321.3557 0002711 104.8848 255.2648 14.34219058153105
IRIDIUM 176             
1 43923U 19002B   21348.45696125  .00000191  00000+0  26434-4 0  9992
2 43923  86.6087 321.3818 0002532  85.8190 274.3316 14.72251643157113
IRIDIUM 168             
1 43924U 19002C   21348.42981078  .00000087  00000+0  24067-4 0  9998
2 43924  86.3956 321.3892 0002423  92.0654 268.0819 14.34218508153083
IRIDIUM 173             
1 43925U 19002D   21348.48689242  .00000088  00000+0  24354-4 0  9993
2 43925  86.3952 321.3213 0002304  92.4344 267.7116 14.34217897153070
IRIDIUM 169             
1 43926U 19002E   21348.49315425  .00000119  00000+0  32250-4 0  9993
2 43926  86.4222 352.9206 0005320  25.0376 335.1079 14.38612158153624
IRIDIUM 172             
1 43927U 19002F   21348.48055630  .00000088  00000+0  24180-4 0  9990
2 43927  86.3953 321.3268 0002372  94.0324 266.1143 14.34219206153084
IRIDIUM 175             
1 43928U 19002G   21348.45074760  .00000185  00000+0  25491-4 0  9997
2 43928  86.6089 321.2093 0002473  99.5232 260.6265 14.72251373157107
IRIDIUM 171             
1 43929U 19002H   21348.46152304  .00000088  00000+0  24402-4 0  9993
2 43929  86.3962 321.4583 0002419  91.4172 268.7301 14.34218779153078
IRIDIUM 170             
1 43930U 19002J   21348.46316193  .00000192  00000+0  26593-4 0  9992
2 43930  86.6087 321.3850 0002558  92.5397 267.6112 14.72251101157128
IRIDIUM 167             
1 43931U 19002K   21348.45517878  .00000088  00000+0  24406-4 0  9990
2 43931  86.3952 321.3453 0002613  99.6240 260.5251 14.34216621153075
